{
    "links": {
        "self": "http://www.neowsapp.com/rest/v1/neo/3609487?api_key=iIulBulltgU6a56xZRHN4H3l9WmuAYTsLGpBGhQ2"
    },
    "id": "3609487",
    "neo_reference_id": "3609487",
    "name": "(2012 SH58)",
    "designation": "2012 SH58",
    "nasa_jpl_url": "http://ssd.jpl.nasa.gov/sbdb.cgi?sstr=3609487",
    "absolute_magnitude_h": 27.0,
    "estimated_diameter": {
        "kilometers": {
            "estimated_diameter_min": 0.0105816886,
            "estimated_diameter_max": 0.023661375
        },
        "meters": {
            "estimated_diameter_min": 10.5816885933,
            "estimated_diameter_max": 23.6613750114
        },
        "miles": {
            "estimated_diameter_min": 0.0065751544,
            "estimated_diameter_max": 0.0147024923
        },
        "feet": {
            "estimated_diameter_min": 34.7168272045,
            "estimated_diameter_max": 77.6291855923
        }
    },
    "is_potentially_hazardous_asteroid": false,
    "close_approach_data": [
        {
            "close_approach_date": "2012-09-25",
            "close_approach_date_full": "2012-Sep-25 18:25",
            "epoch_date_close_approach": 1348597500000,
            "relative_velocity": {
                "kilometers_per_second": "5.818104681",
                "kilometers_per_hour": "20945.1768514537",
                "miles_per_hour": "13014.518360838"
            },
            "miss_distance": {
                "astronomical": "0.027884243",
                "lunar": "10.846970527",
                "kilometers": "4171423.35936241",
                "miles": "2592002.282764858"
            },
            "orbiting_body": "Earth"
        },
        {
            "close_approach_date": "2146-05-03",
            "close_approach_date_full": "2146-May-03 02:29",
            "epoch_date_close_approach": 5564600940000,
            "relative_velocity": {
                "kilometers_per_second": "10.3861051721",
                "kilometers_per_hour": "37389.9786193897",
                "miles_per_hour": "23232.6786593647"
            },
            "miss_distance": {
                "astronomical": "0.0789071243",
                "lunar": "30.6948713527",
                "kilometers": "11804337.723105241",
                "miles": "7334875.3384486858"
            },
            "orbiting_body": "Mars"
        }
    ],
    "orbital_data": {
        "orbit_id": "5",
        "orbit_determination_date": "2019-07-18 07:26:52",
        "first_observation_date": "2012-09-26",
        "last_observation_date": "2012-09-28",
        "data_arc_in_days": 2,
        "observations_used": 18,
        "orbit_uncertainty": "8",
        "minimum_orbit_intersection": ".0268148",
        "jupiter_tisserand_invariant": "3.809",
        "epoch_osculation": "2456197.5",
        "eccentricity": ".4589215083978357",
        "semi_major_axis": "1.902787671374509",
        "inclination": ".3391499979064568",
        "ascending_node_longitude": "81.58134327886259",
        "orbital_period": "958.7026330609268",
        "perihelion_distance": "1.029557483066514",
        "perihelion_argument": "280.0859429168916",
        "aphelion_distance": "2.776017859682504",
        "perihelion_time": "2456195.367796407901",
        "mean_anomaly": ".8006583758979396",
        "mean_motion": ".3755074697673449",
        "equinox": "J2000",
        "orbit_class": {
            "orbit_class_type": "AMO",
            "orbit_class_description": "Near-Earth asteroid orbits similar to that of 1221 Amor",
            "orbit_class_range": "1.017 AU < q (perihelion) < 1.3 AU"
        }
    },
    "is_sentry_object": false
}